OBJECT_NAME,OBJECT_ID,EPOCH,MEAN_MOTION,ECCENTRICITY,INCLINATION,RA_OF_ASC_NODE,ARG_OF_PERICENTER,MEAN_ANOMALY,EPHEMERIS_TYPE,CLASSIFICATION_TYPE,NORAD_CAT_ID,ELEMENT_SET_NO,REV_AT_EPOCH,BSTAR,MEAN_MOTION_DOT,MEAN_MOTION_DDOT
STARLINK-34859,2025-189AB,2026-07-20T06:45:58.400352,15.34434749,.0000709,53.1609,310.4137,82.5190,277.5893,0,U,65348,999,5141,.57104843E-3,.18988E-3,0
STARLINK-34895,2025-189AC,2026-07-20T07:19:20.639136,15.31712987,.00012778,53.1570,309.8466,97.1685,262.9461,0,U,65349,999,5138,.27690074E-3,.824E-4,0
STARLINK-34892,2025-189AD,2026-07-20T00:43:20.001504,15.31714323,.00009589,53.1602,310.9741,86.5814,273.5297,0,U,65350,999,5133,.43013429E-3,.13012E-3,0
STARLINK-34244,2025-190A,2026-07-20T11:12:33.292800,15.34409103,.00011678,53.1582,269.3694,89.8015,270.3122,0,U,65351,999,5011,.39792989E-3,.13096E-3,0
STARLINK-34716,2025-190B,2026-07-20T14:00:01.999872,15.34366477,.00007276,53.1604,270.8430,82.1777,244.1690,0,U,65352,999,571,.10019012E-2,.3359E-3,0
STARLINK-34828,2025-190C,2026-07-20T14:00:01.999872,15.30157310,.0001321,53.1578,270.6250,81.4268,353.9133,0,U,65353,999,571,.10156086E-2,.29801E-3,0
STARLINK-34785,2025-190D,2026-07-20T08:56:28.167072,15.34397542,.00016056,53.1606,270.1777,99.8550,260.2634,0,U,65354,999,4962,.26522425E-3,.8594E-4,0
STARLINK-34823,2025-190E,2026-07-20T10:56:34.344384,15.30202651,.00012453,53.1586,271.3966,94.8446,265.2697,0,U,65355,999,5008,.18804349E-3,.5215E-4,0
STARLINK-34680,2025-190F,2026-07-20T14:00:01.999872,15.34374191,.00008935,53.1585,271.1377,62.4060,112.7544,0,U,65356,999,582,.10772726E-2,.36167E-3,0
STARLINK-34860,2025-190G,2026-07-20T10:54:30.322368,15.34399816,.00016629,53.1575,269.9760,105.8052,254.3134,0,U,65357,999,4963,.33451733E-3,.10942E-3,0
STARLINK-34782,2025-190H,2026-07-20T08:50:36.598560,15.30205160,.00014141,53.1612,271.5658,73.1788,286.9368,0,U,65358,999,5007,.29668934E-3,.8439E-4,0
STARLINK-34760,2025-190J,2026-07-20T09:07:19.147008,15.30207092,.00010784,53.1604,271.6333,130.2427,229.8668,0,U,65359,999,4960,.22250147E-3,.6238E-4,0
STARLINK-34826,2025-190K,2026-07-20T11:30:43.737696,15.34400259,.00009335,53.1586,269.4243,85.3144,274.7965,0,U,65360,999,4964,.19545613E-3,.6233E-4,0
STARLINK-34800,2025-190L,2026-07-20T14:00:01.999872,15.30176995,.00011245,53.1573,270.5543,86.4518,23.8359,0,U,65361,999,577,.10728863E-2,.31529E-3,0
STARLINK-34817,2025-190M,2026-07-20T08:07:59.336544,15.34406683,.00010516,53.1567,269.9643,74.9068,285.2051,0,U,65362,999,5009,.45145752E-3,.14911E-3,0
STARLINK-34797,2025-190N,2026-07-20T10:45:24.723648,15.34399575,.0001261,53.1570,269.9347,97.0452,263.0694,0,U,65363,999,5010,.29327708E-3,.9545E-4,0
STARLINK-34729,2025-190P,2026-07-20T04:44:55.310496,15.30198707,.00012161,53.1590,272.6308,89.9756,270.1384,0,U,65364,999,5046,.22806002E-3,.6401E-4,0
STARLINK-34710,2025-190Q,2026-07-20T08:23:56.750496,15.34400015,.00011084,53.1573,272.1591,72.5441,287.5683,0,U,65365,999,4959,.22712529E-3,.7305E-4,0
STARLINK-34943,2025-190R,2026-07-20T10:48:26.534304,15.34402702,.00011554,53.1576,269.9496,48.5425,311.5677,0,U,65366,999,4963,.23229031E-3,.7481E-4,0
STARLINK-34946,2025-190S,2026-07-20T09:02:31.624224,15.34399774,.00013219,53.1601,270.1964,96.2009,263.9144,0,U,65367,999,5009,.29124456E-3,.9476E-4,0
STARLINK-34259,2025-190T,2026-07-20T08:53:26.450592,15.34397402,.00016235,53.1590,270.1632,87.9585,272.1603,0,U,65368,999,5009,.30009951E-3,.9775E-4,0
STARLINK-34913,2025-190U,2026-07-19T11:36:39.496608,15.34393469,.00008788,53.1567,274.5807,73.3597,286.7502,0,U,65369,999,4995,.34248755E-3,.1121E-3,0
STARLINK-34870,2025-190V,2026-07-20T11:02:38.991264,15.30208157,.0001188,53.1607,271.4248,79.2845,280.8290,0,U,65370,999,4961,.31566229E-3,.9004E-4,0
STARLINK-34869,2025-190W,2026-07-20T11:05:41.540640,15.30206826,.0000937,53.1594,271.4345,77.8228,282.2878,0,U,65371,999,5008,.39050976E-3,.11227E-3,0
STARLINK-34903,2025-190X,2026-07-20T09:13:24.167136,15.30221109,.00010792,53.1597,271.6514,86.7119,273.4005,0,U,65372,999,5007,.38998744E-3,.11216E-3,0
STARLINK-34891,2025-190Y,2026-07-20T08:26:10.228992,15.34391783,.00011162,53.1579,270.0342,92.0667,268.0463,0,U,65373,999,4957,.28931782E-3,.9409E-4,0
STARLINK-34900,2025-190Z,2026-07-20T10:52:01.157088,15.30199261,.0001426,53.1597,271.3732,67.6361,292.4791,0,U,65374,999,4956,.4127488E-3,.11885E-3,0
STARLINK-34305,2025-190AA,2026-07-20T09:14:54.722976,15.30191592,.00010326,53.1567,271.6555,98.0824,262.0294,0,U,65375,999,5007,.23600936E-3,.6635E-4,0
STARLINK-34249,2025-190AB,2026-07-19T11:54:42.308064,15.34393167,.0000996,53.1567,273.9398,94.0098,266.1019,0,U,65376,999,5038,.18946446E-3,.6029E-4,0
STARLINK-34879,2025-190AC,2026-07-20T09:02:45.803328,15.30203794,.00013059,53.1594,271.6076,103.5665,256.5481,0,U,65377,999,5007,.17459472E-3,.4816E-4,0
STARLINK-34912,2025-190AD,2026-07-20T08:53:38.755680,15.30203542,.00009969,53.1581,271.5692,71.0616,289.0493,0,U,65378,999,5007,.21444274E-3,.5998E-4,0
STARLINK-34985,2025-191A,2026-07-20T14:09:13.780512,15.05661546,.0002318,97.2846,70.1652,79.6967,280.4521,0,U,65379,999,5026,.19938894E-3,.2823E-4,0
STARLINK-35051,2025-191B,2026-07-20T08:30:18.516672,15.05668222,.00030346,97.2854,70.0296,78.7144,281.4425,0,U,65380,999,5024,.15304176E-3,.2154E-4,0
STARLINK-35028,2025-191C,2026-07-20T04:54:58.701312,15.05658965,.00025749,97.2835,69.9285,80.7514,279.4004,0,U,65381,999,5021,.14123345E-3,.1983E-4,0
STARLINK-35032,2025-191D,2026-07-20T04:11:06.724896,15.05658692,.0002721,97.2845,69.8120,74.4817,285.6711,0,U,65382,999,5020,.14419282E-3,.2025E-4,0
STARLINK-35054,2025-191E,2026-07-20T04:46:59.501856,15.05665027,.00024393,97.2836,69.7797,76.5717,283.5782,0,U,65383,999,5020,.13563297E-3,.1902E-4,0
STARLINK-35012,2025-191F,2026-07-20T04:23:04.141248,15.05672432,.0001964,97.2848,69.7998,86.9612,273.1840,0,U,65384,999,5020,.2286287E-3,.3246E-4,0
STARLINK-35073,2025-191G,2026-07-20T05:34:50.800224,15.05658864,.00030188,97.2855,69.8882,82.3593,277.7977,0,U,65385,999,5021,.1566238E-3,.2205E-4,0
STARLINK-35066,2025-191H,2026-07-20T05:06:56.353536,15.05659838,.00023869,97.2846,69.9156,89.0307,271.1194,0,U,65386,999,5021,.15981671E-3,.2251E-4,0
STARLINK-34703,2025-191J,2026-07-20T08:38:16.512576,15.05658644,.00031809,97.2847,70.0207,76.0210,284.1372,0,U,65387,999,5023,.13959671E-3,.1959E-4,0
STARLINK-34957,2025-191K,2026-07-20T04:58:57.853056,15.05660099,.00021326,97.2836,69.9250,75.4789,284.6676,0,U,65388,999,5021,.15805211E-3,.2225E-4,0
STARLINK-34993,2025-191L,2026-07-20T04:27:02.978496,15.05661800,.00014004,97.2850,69.7960,78.9226,281.2159,0,U,65389,999,5020,.1046231E-3,.1454E-4,0
STARLINK-35083,2025-191M,2026-07-20T09:30:06.226560,15.05658901,.00025326,97.2846,69.9717,76.9720,283.1790,0,U,65390,999,5023,.16432283E-3,.2316E-4,0
STARLINK-34786,2025-191N,2026-07-20T08:22:20.272800,15.05651065,.00030543,97.2845,70.0380,76.4406,283.7162,0,U,65391,999,5023,.18647944E-3,.2635E-4,0
STARLINK-35082,2025-191P,2026-07-20T04:50:59.981568,15.05667581,.00019471,97.2840,69.9319,106.7540,253.3902,0,U,65392,999,5021,.18402432E-3,.2601E-4,0
STARLINK-35097,2025-191Q,2026-07-20T08:54:13.396896,15.05657654,.00027331,97.2851,70.0058,89.8288,270.3253,0,U,65393,999,4878,.12985371E-3,.1818E-4,0
STARLINK-35058,2025-191R,2026-07-20T04:15:05.808384,15.05659040,.00026367,97.2852,69.8078,81.2850,278.8676,0,U,65394,999,5020,.14693836E-3,.2065E-4,0
STARLINK-35094,2025-191S,2026-07-20T09:06:12.287232,15.05664877,.00024468,97.2852,69.9928,84.9976,275.1531,0,U,65395,999,5024,.25040598E-3,.356E-4,0
STARLINK-34811,2025-191T,2026-07-20T04:39:00.950400,15.05659963,.00022195,97.2845,69.7871,71.8076,288.3393,0,U,65396,999,5020,.1742879E-3,.246E-4,0
STARLINK-34940,2025-191U,2026-07-20T15:05:03.623424,15.05657680,.00027562,97.2849,70.2687,86.8491,273.3052,0,U,65397,999,5027,.10922845E-3,.152E-4,0
STARLINK-34931,2025-191V,2026-07-20T10:53:50.625888,15.05671696,.00022504,97.2851,70.0463,78.2037,281.9443,0,U,65398,999,5024,.2628543E-3,.374E-4,0
STARLINK-34836,2025-191W,2026-07-20T08:50:13.718112,15.05648759,.00021397,97.2840,70.0092,91.3308,268.8164,0,U,65399,999,5023,-.6231402E-5,-.146E-5,0
STARLINK-34876,2025-191X,2026-07-20T05:02:57.638976,15.05643647,.00019631,97.2841,69.9216,87.2356,272.9096,0,U,65400,999,5021,.22489894E-3,.319E-4,0
STARLINK-34909,2025-191Y,2026-07-20T08:34:17.314176,15.05658100,.00031276,97.2850,70.0263,82.3252,277.8331,0,U,65401,999,5024,.1106069E-3,.154E-4,0
STARLINK-34848,2025-191Z,2026-07-20T03:39:12.851712,15.05660054,.00027249,97.2859,69.8455,64.7119,295.4391,0,U,65402,999,5020,.17176578E-3,.2424E-4,0
LEMUR-2-LUCILLE-ROSE,2025-135BV,2026-07-20T13:42:53.816544,15.00526535,.00154432,97.7696,317.7740,173.0509,187.0932,0,U,65403,999,5364,.32174089E-3,.4005E-4,0
STARLINK-35031,2025-192A,2026-07-20T02:32:58.335936,15.34403928,.00014669,53.1598,345.4118,252.7254,107.3589,0,U,65404,999,4954,.22411761E-3,.7204E-4,0
STARLINK-34830,2025-192B,2026-07-20T09:29:27.566016,15.31704354,.00006086,53.1604,335.1262,40.1197,319.9849,0,U,65405,999,4972,.32053059E-3,.9596E-4,0
STARLINK-35036,2025-192C,2026-07-20T09:16:01.396992,15.34398834,.00006865,53.1621,335.7813,42.2076,317.8979,0,U,65406,999,4970,.50241323E-3,.16636E-3,0
STARLINK-35035,2025-192D,2026-07-20T14:00:01.999872,15.34242864,.00027561,53.1592,334.9963,118.1744,182.4109,0,U,65407,999,586,.60825479E-3,.20129E-3,0
STARLINK-35008,2025-192E,2026-07-20T08:10:43.846464,15.30202223,.00004667,53.1606,336.2062,75.6068,284.4985,0,U,65408,999,4969,.43634563E-3,.12587E-3,0
STARLINK-35022,2025-192F,2026-07-20T15:18:53.974944,15.31723235,.00027375,53.1602,333.7991,98.0008,262.1304,0,U,65409,999,4975,.47660962E-3,.14464E-3,0
STARLINK-35024,2025-192G,2026-07-20T15:25:37.417152,15.31720178,.00015479,53.1598,333.8282,84.8327,275.2851,0,U,65410,999,4975,.56193574E-3,.17123E-3,0
STARLINK-34983,2025-192H,2026-07-20T08:48:39.397824,15.31707048,.00017679,53.1599,334.9503,83.2808,276.8395,0,U,65411,999,4971,.59510511E-3,.18151E-3,0
